{
  "type": "FeatureCollection",
  "features": [
    {
      "type": "Feature",
      "properties": {
        "norad_id": 66572,
        "name": "STARLINK-35870",
        "group": "last-30-days",
        "lat": -33.120092589916446,
        "lon": 15.617765584586802,
        "alt_km": 396.10254830379654,
        "timestamp": "2025-12-07T14:37:03.994513+00:00",
        "meta_object_name": "STARLINK-35870",
        "meta_object_id": "2025-268R",
        "meta_epoch": "2025-12-06T22:00:01.999584",
        "meta_mean_motion": 15.60632801,
        "meta_eccentricity": 0.00016243,
        "meta_inclination": 42.9997,
        "meta_ra_of_asc_node": 155.2846,
        "meta_arg_of_pericenter": 270.0087,
        "meta_mean_anomaly": 32.1868,
        "meta_ephemeris_type": 0,
        "meta_classification_type": "U",
        "meta_norad_cat_id": 66572,
        "meta_element_set_no": 999,
        "meta_rev_at_epoch": 373,
        "meta_bstar": -0.025890811,
        "meta_mean_motion_dot": -0.01942838,
        "meta_mean_motion_ddot": 0,
        "tle_line1": "1 66572U 25268R   25340.91668981 -.01942838  00000+0 -25891-1 0  9993",
        "tle_line2": "2 66572  42.9997 155.2846 0001624 270.0087  32.1868 15.60632801  3739"
      },
      "geometry": {
        "type": "Point",
        "coordinates": [
          15.617765584586802,
          -33.120092589916446
        ]
      }
    },
    {
      "type": "Feature",
      "properties": {
        "norad_id": 66573,
        "name": "STARLINK-35650",
        "group": "last-30-days",
        "lat": -34.033929636930004,
        "lon": 17.625352665201344,
        "alt_km": 396.1315995903569,
        "timestamp": "2025-12-07T14:37:03.994523+00:00",
        "meta_object_name": "STARLINK-35650",
        "meta_object_id": "2025-268S",
        "meta_epoch": "2025-12-06T22:00:01.999584",
        "meta_mean_motion": 15.60632939,
        "meta_eccentricity": 0.00017328,
        "meta_inclination": 42.9999,
        "meta_ra_of_asc_node": 155.2787,
        "meta_arg_of_pericenter": 272.7835,
        "meta_mean_anomaly": 31.3294,
        "meta_ephemeris_type": 0,
        "meta_classification_type": "U",
        "meta_norad_cat_id": 66573,
        "meta_element_set_no": 999,
        "meta_rev_at_epoch": 373,
        "meta_bstar": -0.025917891,
        "meta_mean_motion_dot": -0.01944714,
        "meta_mean_motion_ddot": 0,
        "tle_line1": "1 66573U 25268S   25340.91668981 -.01944714  00000+0 -25918-1 0  9999",
        "tle_line2": "2 66573  42.9999 155.2787 0001732 272.7835  31.3294 15.60632939  3732"
      },
      "geometry": {
        "type": "Point",
        "coordinates": [
          17.625352665201344,
          -34.033929636930004
        ]
      }
    },
    {
      "type": "Feature",
      "properties": {
        "norad_id": 66574,
        "name": "STARLINK-35812",
        "group": "last-30-days",
        "lat": -34.91871714770844,
        "lon": 19.68785261917144,
        "alt_km": 396.19263331183174,
        "timestamp": "2025-12-07T14:37:03.994532+00:00",
        "meta_object_name": "STARLINK-35812",
        "meta_object_id": "2025-268T",
        "meta_epoch": "2025-12-06T22:00:01.999584",
        "meta_mean_motion": 15.60627921,
        "meta_eccentricity": 0.00016038,
        "meta_inclination": 42.9999,
        "meta_ra_of_asc_node": 155.2735,
        "meta_arg_of_pericenter": 272.4517,
        "meta_mean_anomaly": 33.5814,
        "meta_ephemeris_type": 0,
        "meta_classification_type": "U",
        "meta_norad_cat_id": 66574,
        "meta_element_set_no": 999,
        "meta_rev_at_epoch": 373,
        "meta_bstar": -0.025825369,
        "meta_mean_motion_dot": -0.01938174,
        "meta_mean_motion_ddot": 0,
        "tle_line1": "1 66574U 25268T   25340.91668981 -.01938174  00000+0 -25825-1 0  9990",
        "tle_line2": "2 66574  42.9999 155.2735 0001603 272.4517  33.5814 15.60627921  3734"
      },
      "geometry": {
        "type": "Point",
        "coordinates": [
          19.68785261917144,
          -34.91871714770844
        ]
      }
    },
    {
      "type": "Feature",
      "properties": {
        "norad_id": 66575,
        "name": "STARLINK-35810",
        "group": "last-30-days",
        "lat": -35.765468375905144,
        "lon": 21.78989428204263,
        "alt_km": 396.10530418560666,
        "timestamp": "2025-12-07T14:37:03.994542+00:00",
        "meta_object_name": "STARLINK-35810",
        "meta_object_id": "2025-268U",
        "meta_epoch": "2025-12-06T22:00:01.999584",
        "meta_mean_motion": 15.6062654,
        "meta_eccentricity": 0.00017235,
        "meta_inclination": 42.9996,
        "meta_ra_of_asc_node": 155.2688,
        "meta_arg_of_pericenter": 271.2356,
        "meta_mean_anomaly": 36.7138,
        "meta_ephemeris_type": 0,
        "meta_classification_type": "U",
        "meta_norad_cat_id": 66575,
        "meta_element_set_no": 999,
        "meta_rev_at_epoch": 373,
        "meta_bstar": -0.025789032,
        "meta_mean_motion_dot": -0.01935767,
        "meta_mean_motion_ddot": 0,
        "tle_line1": "1 66575U 25268U   25340.91668981 -.01935767  00000+0 -25789-1 0  9995",
        "tle_line2": "2 66575  42.9996 155.2688 0001723 271.2356  36.7138 15.60626540  3730"
      },
      "geometry": {
        "type": "Point",
        "coordinates": [
          21.78989428204263,
          -35.765468375905144
        ]
      }
    },
    {
      "type": "Feature",
      "properties": {
        "norad_id": 66576,
        "name": "STARLINK-35814",
        "group": "last-30-days",
        "lat": -36.57403150368485,
        "lon": 23.934343502534688,
        "alt_km": 396.1197765217685,
        "timestamp": "2025-12-07T14:37:03.994552+00:00",
        "meta_object_name": "STARLINK-35814",
        "meta_object_id": "2025-268V",
        "meta_epoch": "2025-12-06T22:00:01.999584",
        "meta_mean_motion": 15.60629759,
        "meta_eccentricity": 0.000167,
        "meta_inclination": 42.9993,
        "meta_ra_of_asc_node": 155.264,
        "meta_arg_of_pericenter": 269.0754,
        "meta_mean_anomaly": 40.7911,
        "meta_ephemeris_type": 0,
        "meta_classification_type": "U",
        "meta_norad_cat_id": 66576,
        "meta_element_set_no": 999,
        "meta_rev_at_epoch": 373,
        "meta_bstar": -0.025862785,
        "meta_mean_motion_dot": -0.01940817,
        "meta_mean_motion_ddot": 0,
        "tle_line1": "1 66576U 25268V   25340.91668981 -.01940817  00000+0 -25863-1 0  9991",
        "tle_line2": "2 66576  42.9993 155.2640 0001670 269.0754  40.7911 15.60629759  3733"
      },
      "geometry": {
        "type": "Point",
        "coordinates": [
          23.934343502534688,
          -36.57403150368485
        ]
      }
    },
    {
      "type": "Feature",
      "properties": {
        "norad_id": 66577,
        "name": "STARLINK-35815",
        "group": "last-30-days",
        "lat": -37.343998239615985,
        "lon": 26.124096104900328,
        "alt_km": 396.1044169299166,
        "timestamp": "2025-12-07T14:37:03.994562+00:00",
        "meta_object_name": "STARLINK-35815",
        "meta_object_id": "2025-268W",
        "meta_epoch": "2025-12-06T22:00:01.999584",
        "meta_mean_motion": 15.60630528,
        "meta_eccentricity": 0.00017129,
        "meta_inclination": 42.9995,
        "meta_ra_of_asc_node": 155.2592,
        "meta_arg_of_pericenter": 269.1299,
        "meta_mean_anomaly": 42.6523,
        "meta_ephemeris_type": 0,
        "meta_classification_type": "U",
        "meta_norad_cat_id": 66577,
        "meta_element_set_no": 999,
        "meta_rev_at_epoch": 373,
        "meta_bstar": -0.025863775,
        "meta_mean_motion_dot": -0.01940964,
        "meta_mean_motion_ddot": 0,
        "tle_line1": "1 66577U 25268W   25340.91668981 -.01940964  00000+0 -25864-1 0  9996",
        "tle_line2": "2 66577  42.9995 155.2592 0001712 269.1299  42.6523 15.60630528  3730"
      },
      "geometry": {
        "type": "Point",
        "coordinates": [
          26.124096104900328,
          -37.343998239615985
        ]
      }
    },
    {
      "type": "Feature",
      "properties": {
        "norad_id": 66578,
        "name": "STARLINK-35743",
        "group": "last-30-days",
        "lat": -38.07253189449889,
        "lon": 28.358234158926656,
        "alt_km": 396.1284246149098,
        "timestamp": "2025-12-07T14:37:03.994576+00:00",
        "meta_object_name": "STARLINK-35743",
        "meta_object_id": "2025-268X",
        "meta_epoch": "2025-12-06T22:00:01.999584",
        "meta_mean_motion": 15.60629508,
        "meta_eccentricity": 0.00016979,
        "meta_inclination": 42.9995,
        "meta_ra_of_asc_node": 155.2542,
        "meta_arg_of_pericenter": 269.5218,
        "meta_mean_anomaly": 44.1787,
        "meta_ephemeris_type": 0,
        "meta_classification_type": "U",
        "meta_norad_cat_id": 66578,
        "meta_element_set_no": 999,
        "meta_rev_at_epoch": 373,
        "meta_bstar": -0.02585342,
        "meta_mean_motion_dot": -0.01940202,
        "meta_mean_motion_ddot": 0,
        "tle_line1": "1 66578U 25268X   25340.91668981 -.01940202  00000+0 -25853-1 0  9990",
        "tle_line2": "2 66578  42.9995 155.2542 0001697 269.5218  44.1787 15.60629508  3738"
      },
      "geometry": {
        "type": "Point",
        "coordinates": [
          28.358234158926656,
          -38.07253189449889
        ]
      }
    }
  ]
}